ION SCV-017             
1 63230U 25052W   26068.71648816  .00006457  00000+0  24539-3 0  9998
2 63230  97.4016 324.7516 0023746  44.9875 315.3282 15.26881798 54851
STARLINK-35727          
1 66281U 25247S   26068.57891525  .00015616  00000+0  53868-3 0  9998
2 66281  53.1586 192.1730 0001461  32.0349 328.0740 15.30173698 21010
